{
    "links": {
        "self": "http://www.neowsapp.com/rest/v1/neo/3465718?api_key=iIulBulltgU6a56xZRHN4H3l9WmuAYTsLGpBGhQ2"
    },
    "id": "3465718",
    "neo_reference_id": "3465718",
    "name": "(2009 QR)",
    "designation": "2009 QR",
    "nasa_jpl_url": "http://ssd.jpl.nasa.gov/sbdb.cgi?sstr=3465718",
    "absolute_magnitude_h": 27.4,
    "estimated_diameter": {
        "kilometers": {
            "estimated_diameter_min": 0.0088014652,
            "estimated_diameter_max": 0.0196806745
        },
        "meters": {
            "estimated_diameter_min": 8.801465209,
            "estimated_diameter_max": 19.6806745089
        },
        "miles": {
            "estimated_diameter_min": 0.0054689752,
            "estimated_diameter_max": 0.0122290004
        },
        "feet": {
            "estimated_diameter_min": 28.8761991163,
            "estimated_diameter_max": 64.5691441559
        }
    },
    "is_potentially_hazardous_asteroid": false,
    "close_approach_data": [
        {
            "close_approach_date": "1990-11-14",
            "close_approach_date_full": "1990-Nov-14 11:32",
            "epoch_date_close_approach": 658582320000,
            "relative_velocity": {
                "kilometers_per_second": "14.2044841458",
                "kilometers_per_hour": "51136.1429247382",
                "miles_per_hour": "31774.0105856519"
            },
            "miss_distance": {
                "astronomical": "0.314628437",
                "lunar": "122.390461993",
                "kilometers": "47067744.01662919",
                "miles": "29246539.951855222"
            },
            "orbiting_body": "Earth"
        },
        {
            "close_approach_date": "1998-07-24",
            "close_approach_date_full": "1998-Jul-24 00:12",
            "epoch_date_close_approach": 901239120000,
            "relative_velocity": {
                "kilometers_per_second": "12.4289794996",
                "kilometers_per_hour": "44744.3261983951",
                "miles_per_hour": "27802.3842425528"
            },
            "miss_distance": {
                "astronomical": "0.2497682351",
                "lunar": "97.1598434539",
                "kilometers": "37364795.964619237",
                "miles": "23217407.6069179906"
            },
            "orbiting_body": "Earth"
        },
        {
            "close_approach_date": "2009-08-20",
            "close_approach_date_full": "2009-Aug-20 16:09",
            "epoch_date_close_approach": 1250784540000,
            "relative_velocity": {
                "kilometers_per_second": "5.2961663305",
                "kilometers_per_hour": "19066.1987899053",
                "miles_per_hour": "11846.9944647609"
            },
            "miss_distance": {
                "astronomical": "0.0087178268",
                "lunar": "3.3912346252",
                "kilometers": "1304168.320308916",
                "miles": "810372.6167624008"
            },
            "orbiting_body": "Earth"
        },
        {
            "close_approach_date": "2019-09-02",
            "close_approach_date_full": "2019-Sep-02 08:51",
            "epoch_date_close_approach": 1567414260000,
            "relative_velocity": {
                "kilometers_per_second": "4.1482907229",
                "kilometers_per_hour": "14933.8466023932",
                "miles_per_hour": "9279.3115180259"
            },
            "miss_distance": {
                "astronomical": "0.0576694659",
                "lunar": "22.4334222351",
                "kilometers": "8627229.262677633",
                "miles": "5360711.6843240154"
            },
            "orbiting_body": "Mars"
        }
    ],
    "orbital_data": {
        "orbit_id": "11",
        "orbit_determination_date": "2017-04-06 09:00:15",
        "first_observation_date": "2009-08-17",
        "last_observation_date": "2009-08-22",
        "data_arc_in_days": 5,
        "observations_used": 49,
        "orbit_uncertainty": "7",
        "minimum_orbit_intersection": ".000815274",
        "jupiter_tisserand_invariant": "4.852",
        "epoch_osculation": "2459000.5",
        "eccentricity": ".2671820410292398",
        "semi_major_axis": "1.342796682362155",
        "inclination": "3.419818923314875",
        "ascending_node_longitude": "150.476592534591",
        "orbital_period": "568.3473197013544",
        "perihelion_distance": ".9840255240813425",
        "perihelion_argument": "209.7005149171663",
        "aphelion_distance": "1.701567840642967",
        "perihelion_time": "2459070.523505769334",
        "mean_anomaly": "315.6460262886319",
        "mean_motion": ".6334154970400261",
        "equinox": "J2000",
        "orbit_class": {
            "orbit_class_type": "APO",
            "orbit_class_description": "Near-Earth asteroid orbits which cross the Earth’s orbit similar to that of 1862 Apollo",
            "orbit_class_range": "a (semi-major axis) > 1.0 AU; q (perihelion) < 1.017 AU"
        }
    },
    "is_sentry_object": false
}